satname,norad_id,inclination_deg,eccentricity,mean_motion_rev_per_day,perigee_km,apogee_km,l1,l2
STARLINK-1448,45665,53.0539,0.0001474,15.06418004,546.1355905768587,548.1771670649341,1 45665U 20035J   25258.93613276  .00005198  00000+0  36739-3 0  9998,2 45665  53.0539 131.1155 0001474  93.4878 266.6280 15.06418004292388
STARLINK-1451,45668,53.0525,0.0001281,15.06407953,546.3000492180836,548.0743172738312,1 45668U 20035M   25259.33794522  .00002939  00000+0  21607-3 0  9998,2 45668  53.0525 129.6313 0001281  86.4625 273.6510 15.06407953292455
STARLINK-1452,45669,53.0508,0.0004464,15.21227219,499.0664221789548,505.20913149971693,1 45669U 20035N   25259.30708877  .00047363  00000+0  20956-2 0  9999,2 45669  53.0508 116.3303 0004464 172.8201 187.2859 15.21227219292633
STARLINK-1453,45670,53.054,0.0001232,15.06399571,546.3596696574778,548.0660758661261,1 45670U 20035P   25259.28170781  .00001693  00000+0  13250-3 0  9991,2 45670  53.0540  99.5694 0001232  58.3479 301.7630 15.06399571292758
STARLINK-1454,45671,53.054,0.0001608,15.06403963,546.0858178456429,548.3130060357225,1 45671U 20035Q   25259.36001665  .00001674  00000+0  13127-3 0  9997,2 45671  53.0540 129.2156 0001608  90.1818 269.9356 15.06403963292448
STARLINK-1456,45673,53.0542,0.0002032,15.06384953,545.8504350119865,548.6649154079914,1 45673U 20035S   25259.37478009 -.00001847  00000+0 -10515-3 0  9992,2 45673  53.0542 129.1515 0002032  84.9978 275.1243 15.06384953292463
STARLINK-1457,45674,53.0528,0.0001243,15.06409087,546.3228903680747,548.0445250960156,1 45674U 20035T   25259.38213566  .00003320  00000+0  24162-3 0  9998,2 45674  53.0528 129.1168 0001243  85.0399 275.0732 15.06409087292439
STARLINK-1458,45675,53.0533,0.000116,15.06402043,546.4019567382129,548.0086361509875,1 45675U 20035U   25259.37107923  .00001119  00000+0  93990-4 0  9997,2 45675  53.0533 129.1659 0001160  85.3948 274.7173 15.06402043292421
STARLINK-1460,45676,53.0523,0.0001307,15.06417836,546.2517577945846,548.0620296183988,1 45676U 20035V   25259.34159103  .00002880  00000+0  21206-3 0  9998,2 45676  53.0523 129.2972 0001307  93.8457 266.2682 15.06417836292418
STARLINK-1392,45677,53.0557,0.0001469,15.06419075,546.1357713123143,548.1704215426444,1 45677U 20035W   25259.02089195  .00002260  00000+0  17049-3 0  9999,2 45677  53.0557 130.7395 0001469  94.4885 265.6272 15.06419075292407
STARLINK-1394,45679,53.0547,0.0001726,15.0639079,546.0444653724508,548.4351054387726,1 45679U 20035Y   25259.34988590 -.00001991  00000+0 -11485-3 0  9993,2 45679  53.0547 119.2602 0001726  89.8843 270.2344 15.06390790292593
STARLINK-1402,45685,53.054,0.0001356,15.06401477,546.2679544990788,548.1461078003258,1 45685U 20035AE  25259.31431405  .00000435  00000+0  48106-4 0  9996,2 45685  53.0540 113.8403 0001356  89.1185 270.9960 15.06401477292678
STARLINK-1404,45686,53.0542,0.0001371,15.06406674,546.2416406820848,548.1405656479719,1 45686U 20035AF  25258.91125533  .00000628  00000+0  61037-4 0  9996,2 45686  53.0542 121.2318 0001371  90.5918 269.5228 15.06406674292536
STARLINK-1413,45689,53.0536,0.0001277,15.064223,546.2588542100566,548.0275707763267,1 45689U 20035AJ  25259.06236630  .00005331  00000+0  37628-3 0  9991,2 45689  53.0536 120.5486 0001277  91.6881 268.4254 15.06422300292469
STARLINK-1417,45693,53.0542,0.0001372,15.06397577,546.268825253238,548.1691429352732,1 45693U 20035AN  25259.32408127  .00000587  00000+0  58301-4 0  9997,2 45693  53.0542 119.3783 0001372  87.7606 272.3540 15.06397577292586
STARLINK-1420,45695,53.0535,0.0001366,15.06405459,546.2488266124838,548.1408272676035,1 45695U 20035AQ  25259.25862661  .00001284  00000+0  10507-3 0  9998,2 45695  53.0535  99.6594 0001366  89.6912 270.4234 15.06405459292863
STARLINK-1422,45696,53.0543,0.0001476,15.06406873,546.1683149252549,548.2126716012663,1 45696U 20035AR  25259.33514951  .00002159  00000+0  16378-3 0  9998,2 45696  53.0543 119.3297 0001476  89.2792 270.8366 15.06406873292587
STARLINK-1351,45697,53.0543,0.0001358,15.06405156,546.2552953977411,548.1362157741587,1 45697U 20035AS  25258.97944378  .00000782  00000+0  71395-4 0  9999,2 45697  53.0543 100.9225 0001358  90.2462 269.8682 15.06405156292829
STARLINK-1398,45699,53.0529,0.0007092,15.41959513,435.4909638925328,445.16227268871626,1 45699U 20035AU  25258.87441759  .00142718  00000+0  32477-2 0  9997,2 45699  53.0529  73.8491 0007092 124.4951 235.6724 15.41959513293191
STARLINK-1400,45700,53.0554,0.000124,15.06435088,546.2452904727088,547.9627502457588,1 45700U 20035AV  25259.28534473  .00005026  00000+0  35573-3 0  9993,2 45700  53.0554  99.5518 0001240  86.7041 273.4090 15.06435088292862
STARLINK-1403,45701,53.0542,0.0001304,15.064012,546.304815141184,548.1109450859167,1 45701U 20035AW  25259.24851454  .00000000  00000+0  18911-4 0  9996,2 45701  53.0542  99.7141 0001304  91.1871 268.9267 15.06401200292859
STARLINK-1407,45703,53.0437,0.000739,15.33576227,460.0955719588519,470.209954228706,1 45703U 20035AY  25259.49682424  .00013506  00000+0  42064-3 0  9994,2 45703  53.0437  67.0388 0007390 203.4666 156.5999 15.33576227293347
STARLINK-1411,45706,53.0565,0.0001055,15.26939604,484.24328469580723,485.69139971201275,1 45706U 20035BB  25259.27978122  .00098789  00000+0  36495-2 0  9992,2 45706  53.0565  94.0882 0001055 114.1562 245.9547 15.26939604292936
STARLINK-1423,45710,53.0547,0.0001436,15.0639876,546.2208777636306,548.2098389609519,1 45710U 20035BF  25258.87624130  .00000814  00000+0  73527-4 0  9990,2 45710  53.0547 101.3892 0001436  94.6881 265.4272 15.06398760292801
STARLINK-1433,45711,53.0526,0.0001252,15.0639353,546.3643315052677,548.0984437495308,1 45711U 20035BG  25258.99050067 -.00000109  00000+0  11605-4 0  9993,2 45711  53.0526 100.8688 0001252  81.4885 278.6245 15.06393530292817
STARLINK-1434,45712,53.0514,0.0004321,15.11052134,530.0037326462189,535.976328626095,1 45712U 20035BH  25259.29270930  .00033917  00000+0  20125-2 0  9998,2 45712  53.0514  97.8555 0004321  96.7251 263.4232 15.11052134292893
STARLINK-1465,45731,53.0498,0.0001453,15.06414187,546.161830340111,548.1743239955367,1 45731U 20038B   25259.48809781  .00001137  00000+0  95151-4 0  9997,2 45731  53.0498 298.6392 0001453  78.3954 281.7198 15.06414187289933
STARLINK-1471,45735,53.0486,0.0004329,15.37936928,449.25403945207563,455.1677546613482,1 45735U 20038F   25259.37303242  .00030028  00000+0  80017-3 0  9995,2 45735  53.0486 250.0186 0004329  47.8684 312.2686 15.37936928290618
